STARLINK-36236          
1 67078U 25298D   26176.83700226  .00002675  00000+0  23190-3 0  9991
2 67078  70.0018 101.9078 0002896 269.4973  90.5854 14.98335690 29412
STARLINK-36159          
1 67079U 25298E   26176.85784954  .00005226  00000+0  44538-3 0  9998
2 67079  70.0033 101.5889 0002205 268.5923  91.4983 14.98337893 29426
STARLINK-36158          
1 67080U 25298F   26176.85350863  .00002630  00000+0  22812-3 0  9995
2 67080  70.0023 101.5665 0002405 270.3048  89.7836 14.98335270 29424
STARLINK-35864          
1 67081U 25298G   26176.86185583  .00001962  00000+0  17213-3 0  9998
2 67081  70.0020 101.5964 0002757 255.5705 104.5149 14.98336831 29426
STARLINK-36035          
1 67082U 25298H   26176.87020705  .00006591  00000+0  55953-3 0  9990
2 67082  70.0019 101.6260 0002693 273.6973  86.3878 14.98336794 29426
STARLINK-36170          
1 67083U 25298J   26176.82848773  .00001811  00000+0  15946-3 0  9997
2 67083  70.0014 101.8716 0002369 269.3794  90.7094 14.98339416 29404
STARLINK-36166          
1 67084U 25298K   26176.84101160  .00001997  00000+0  17498-3 0  9991
2 67084  70.0034 101.9192 0001729 268.1199  91.9762 14.98350490 29412
STARLINK-35794          
1 67085U 25298L   26176.81181323  .00005906  00000+0  50243-3 0  9997
2 67085  70.0016 101.8237 0002779 269.2479  90.8362 14.98324507 29415
STARLINK-35841          
1 67086U 25298M   26176.83266222  .00002236  00000+0  19508-3 0  9994
2 67086  70.0015 101.8876 0002671 260.9424  99.1433 14.98336311 29410
STARLINK-35842          
1 67087U 25298N   26176.80778519  .00005526  00000+0  47045-3 0  9991
2 67087  70.0018 101.8216 0003344 263.3797  96.6981 14.98337800 29414
STARLINK-35882          
1 67088U 25298P   26176.84518507  .00002718  00000+0  23546-3 0  9995
2 67088  70.0017 101.9312 0003231 251.4823 108.5986 14.98335640 29413
STARLINK-35763          
1 67089U 25298Q   26176.84952618  .00002998  00000+0  25891-3 0  9996
2 67089  70.0021 101.9517 0002569 264.3042  95.7824 14.98336292 29417
STARLINK-36060          
1 67090U 25298R   26176.81613275  .00003159  00000+0  27238-3 0  9995
2 67090  70.0017 101.8334 0002593 265.0501  95.0362 14.98338518 29418
STARLINK-36097          
1 67091U 25298S   26176.81817630  .00097324  00000+0  23991-2 0  9995
2 67091  69.9910  85.8120 0008934 223.7386 136.3087 15.40035415 29814
STARLINK-35792          
1 67092U 25298T   26176.83285118  .00007225  00000+0  61270-3 0  9992
2 67092  70.0011 101.8922 0002793 265.8512  94.2328 14.98329525 29410
STARLINK-35784          
1 67093U 25298U   26176.86603115  .00002685  00000+0  23269-3 0  9998
2 67093  70.0008 101.6095 0002704 268.3833  91.7016 14.98335504 29423
STARLINK-36202          
1 67094U 25298V   26176.85768080  .00002141  00000+0  18713-3 0  9996
2 67094  70.0018 101.5800 0002855 263.3201  96.7633 14.98337407 29423
STARLINK-36227          
1 67095U 25298W   26176.81195604  .00002341  00000+0  20391-3 0  9996
2 67095  70.0017 101.8170 0003212 247.3876 112.6944 14.98337634 29418
STARLINK-36228          
1 67096U 25298X   26176.82431281  .00004679  00000+0  39957-3 0  9996
2 67096  70.0024 101.8563 0002236 261.9329  98.1576 14.98343294 29411
STARLINK-36222          
1 67097U 25298Y   26176.83683723  .00003075  00000+0  26537-3 0  9997
2 67097  70.0013 101.9005 0002818 268.0982  91.9854 14.98337834 29414
STARLINK-36205          
1 67098U 25298Z   26176.80763955  .00014441  00000+0  12155-2 0  9990
2 67098  70.0021 101.8078 0002661 271.2928  88.7926 14.98334188 29418
STARLINK-36193          
1 67099U 25298AA  26176.86201786 -.00001314  00000+0 -10235-3 0  9991
2 67099  70.0002 101.6061 0003271 264.7346  95.3440 14.98330405 29421
STARLINK-36215          
1 67100U 25298AB  26176.81596569  .00002350  00000+0  20464-3 0  9999
2 67100  70.0022 101.8270 0002682 269.7322  90.3530 14.98342025 29419
STARLINK-36200          
1 67101U 25298AC  26176.84117714  .00002455  00000+0  21342-3 0  9996
2 67101  70.0017 101.9213 0002543 270.1567  89.9301 14.98335637 29416
STARLINK-36255          
1 67102U 25299A   26176.76466387  .00016131  00000+0  59406-3 0  9990
2 67102  42.9975 278.7556 0001375 263.0005  97.0690 15.27600309 29641
STARLINK-36256          
1 67103U 25299B   26176.75823588  .00025586  00000+0  93524-3 0  9993
2 67103  42.9997 278.7110 0001686 266.4317  93.6342 15.27609150 29649
STARLINK-36258          
1 67104U 25299C   26176.64160139  .00026821  00000+0  97902-3 0  9995
2 67104  43.0019 279.5489 0001015 291.7357  68.3386 15.27634842 29627
STARLINK-36261          
1 67105U 25299D   26176.63003588  .00021848  00000+0  80040-3 0  9998
2 67105  43.0003 279.4692 0001813 265.6693  94.3952 15.27609335 29622
STARLINK-36259          
1 67106U 25299E   26176.66715490  .00019581  00000+0  71843-3 0  9996
2 67106  43.0012 278.8805 0000451 264.8577  95.2223 15.27614235 29638
STARLINK-36196          
1 67107U 25299F   26176.69670581  .00018630  00000+0  68427-3 0  9999
2 67107  43.0009 279.1050 0001655 265.0936  94.9727 15.27605539 29632
