OBJECT_NAME,OBJECT_ID,EPOCH,MEAN_MOTION,ECCENTRICITY,INCLINATION,RA_OF_ASC_NODE,ARG_OF_PERICENTER,MEAN_ANOMALY,EPHEMERIS_TYPE,CLASSIFICATION_TYPE,NORAD_CAT_ID,ELEMENT_SET_NO,REV_AT_EPOCH,BSTAR,MEAN_MOTION_DOT,MEAN_MOTION_DDOT
STARLINK-36236,2025-298D,2026-06-25T20:05:16.995264,14.98335690,.0002896,70.0018,101.9078,269.4973,90.5854,0,U,67078,999,2941,.2319E-3,.2675E-4,0
STARLINK-36159,2025-298E,2026-06-25T20:35:18.200256,14.98337893,.0002205,70.0033,101.5889,268.5923,91.4983,0,U,67079,999,2942,.44538E-3,.5226E-4,0
STARLINK-36158,2025-298F,2026-06-25T20:29:03.145632,14.98335270,.0002405,70.0023,101.5665,270.3048,89.7836,0,U,67080,999,2942,.22812E-3,.263E-4,0
STARLINK-35864,2025-298G,2026-06-25T20:41:04.343712,14.98336831,.0002757,70.0020,101.5964,255.5705,104.5149,0,U,67081,999,2942,.17213E-3,.1962E-4,0
STARLINK-36035,2025-298H,2026-06-25T20:53:05.889120,14.98336794,.0002693,70.0019,101.6260,273.6973,86.3878,0,U,67082,999,2942,.55953E-3,.6591E-4,0
STARLINK-36170,2025-298J,2026-06-25T19:53:01.339872,14.98339416,.0002369,70.0014,101.8716,269.3794,90.7094,0,U,67083,999,2940,.15946E-3,.1811E-4,0
STARLINK-36166,2025-298K,2026-06-25T20:11:03.402240,14.98350490,.0001729,70.0034,101.9192,268.1199,91.9762,0,U,67084,999,2941,.17498E-3,.1997E-4,0
STARLINK-35794,2025-298L,2026-06-25T19:29:00.663072,14.98324507,.0002779,70.0016,101.8237,269.2479,90.8362,0,U,67085,999,2941,.50243E-3,.5906E-4,0
STARLINK-35841,2025-298M,2026-06-25T19:59:02.015808,14.98336311,.0002671,70.0015,101.8876,260.9424,99.1433,0,U,67086,999,2941,.19508E-3,.2236E-4,0
STARLINK-35842,2025-298N,2026-06-25T19:23:12.640416,14.98337800,.0003344,70.0018,101.8216,263.3797,96.6981,0,U,67087,999,2941,.47045E-3,.5526E-4,0
STARLINK-35882,2025-298P,2026-06-25T20:17:03.990048,14.98335640,.0003231,70.0017,101.9312,251.4823,108.5986,0,U,67088,999,2941,.23546E-3,.2718E-4,0
STARLINK-35763,2025-298Q,2026-06-25T20:23:19.061952,14.98336292,.0002569,70.0021,101.9517,264.3042,95.7824,0,U,67089,999,2941,.25891E-3,.2998E-4,0
STARLINK-36060,2025-298R,2026-06-25T19:35:13.869600,14.98338518,.0002593,70.0017,101.8334,265.0501,95.0362,0,U,67090,999,2941,.27238E-3,.3159E-4,0
STARLINK-36097,2025-298S,2026-06-25T19:38:10.432320,15.40035415,.0008934,69.9910,85.8120,223.7386,136.3087,0,U,67091,999,2981,.23991E-2,.97324E-3,0
STARLINK-35792,2025-298T,2026-06-25T19:59:18.341952,14.98329525,.0002793,70.0011,101.8922,265.8512,94.2328,0,U,67092,999,2941,.6127E-3,.7225E-4,0
STARLINK-35784,2025-298U,2026-06-25T20:47:05.091360,14.98335504,.0002704,70.0008,101.6095,268.3833,91.7016,0,U,67093,999,2942,.23269E-3,.2685E-4,0
STARLINK-36202,2025-298V,2026-06-25T20:35:03.621120,14.98337407,.0002855,70.0018,101.5800,263.3201,96.7633,0,U,67094,999,2942,.18713E-3,.2141E-4,0
STARLINK-36227,2025-298W,2026-06-25T19:29:13.001856,14.98337634,.0003212,70.0017,101.8170,247.3876,112.6944,0,U,67095,999,2941,.20391E-3,.2341E-4,0
STARLINK-36228,2025-298X,2026-06-25T19:47:00.626784,14.98343294,.0002236,70.0024,101.8563,261.9329,98.1576,0,U,67096,999,2941,.39957E-3,.4679E-4,0
STARLINK-36222,2025-298Y,2026-06-25T20:05:02.736672,14.98337834,.0002818,70.0013,101.9005,268.0982,91.9854,0,U,67097,999,2941,.26537E-3,.3075E-4,0
STARLINK-36205,2025-298Z,2026-06-25T19:23:00.057120,14.98334188,.0002661,70.0021,101.8078,271.2928,88.7926,0,U,67098,999,2941,.12155E-2,.14441E-3,0
STARLINK-36193,2025-298AA,2026-06-25T20:41:18.343104,14.98330405,.0003271,70.0002,101.6061,264.7346,95.3440,0,U,67099,999,2942,-.10235E-3,-.1314E-4,0
STARLINK-36215,2025-298AB,2026-06-25T19:34:59.435616,14.98342025,.0002682,70.0022,101.8270,269.7322,90.3530,0,U,67100,999,2941,.20464E-3,.235E-4,0
STARLINK-36200,2025-298AC,2026-06-25T20:11:17.704896,14.98335637,.0002543,70.0017,101.9213,270.1567,89.9301,0,U,67101,999,2941,.21342E-3,.2455E-4,0
STARLINK-36255,2025-299A,2026-06-25T18:21:06.958368,15.27600309,.0001375,42.9975,278.7556,263.0005,97.0690,0,U,67102,999,2964,.59406E-3,.16131E-3,0
STARLINK-36256,2025-299B,2026-06-25T18:11:51.580032,15.27609150,.0001686,42.9997,278.7110,266.4317,93.6342,0,U,67103,999,2964,.93524E-3,.25586E-3,0
STARLINK-36258,2025-299C,2026-06-25T15:23:54.360096,15.27634842,.0001015,43.0019,279.5489,291.7357,68.3386,0,U,67104,999,2962,.97902E-3,.26821E-3,0
STARLINK-36261,2025-299D,2026-06-25T15:07:15.100032,15.27609335,.0001813,43.0003,279.4692,265.6693,94.3952,0,U,67105,999,2962,.8004E-3,.21848E-3,0
STARLINK-36259,2025-299E,2026-06-25T16:00:42.183360,15.27614235,.0000451,43.0012,278.8805,264.8577,95.2223,0,U,67106,999,2963,.71843E-3,.19581E-3,0
STARLINK-36196,2025-299F,2026-06-25T16:43:15.381984,15.27605539,.0001655,43.0009,279.1050,265.0936,94.9727,0,U,67107,999,2963,.68427E-3,.1863E-3,0
